[{"OBJECT_NAME":"STARLINK-4179","OBJECT_ID":"2022-086AK","EPOCH":"2026-03-09T15:01:18.846912","MEAN_MOTION":15.08837995,"ECCENTRICITY":0.0001218,"INCLINATION":53.2176,"RA_OF_ASC_NODE":184.4077,"ARG_OF_PERICENTER":80.977,"MEAN_ANOMALY":279.136,"EPHEMERIS_TYPE":0,"CLASSIFICATION_TYPE":"U","NORAD_CAT_ID":53275,"ELEMENT_SET_NO":999,"REV_AT_EPOCH":20118,"BSTAR":4.479e-6,"MEAN_MOTION_DOT":-2.17e-6,"MEAN_MOTION_DDOT":0},{"OBJECT_NAME":"CZ-4C DEB","OBJECT_ID":"2010-038E","EPOCH":"2026-03-08T13:52:01.201152","MEAN_MOTION":14.99820212,"ECCENTRICITY":0.00772359,"INCLINATION":97.9453,"RA_OF_ASC_NODE":199.3713,"ARG_OF_PERICENTER":309.8702,"MEAN_ANOMALY":49.5744,"EPHEMERIS_TYPE":0,"CLASSIFICATION_TYPE":"U","NORAD_CAT_ID":37569,"ELEMENT_SET_NO":999,"REV_AT_EPOCH":82446,"BSTAR":0.0019249603,"MEAN_MOTION_DOT":0.00025376,"MEAN_MOTION_DDOT":0}]
